NORAD_CAT_ID,OBJECT_NAME,OBJECT_TYPE,EPOCH,MEAN_MOTION,ECCENTRICITY,INCLINATION,RA_OF_ASC_NODE,ARG_OF_PERICENTER,MEAN_ANOMALY,BSTAR,MEAN_MOTION_DOT,MEAN_MOTION_DDOT,TLE_LINE0,TLE_LINE1,TLE_LINE2,SEMIMAJOR_AXIS,PERIOD,APOGEE,PERIGEE,DECAYED
53784.0,STARLINK-4687,PAYLOAD,2022-11-04 06:00:00,15.49918952,0.000211,53.2167,359.9954,49.2158,283.5461,0.00042236,0.00023621,0.0,0 STARLINK-4687,1 53784U 22111M   22308.25001157  .00023621  00000-0  42236-3 0  9994,2 53784  53.2167 359.9954 0002110  49.2158 283.5461 15.49918952  8448,6795.1,92.908,418.399,415.531,0.0
53784.0,STARLINK-4687,PAYLOAD,2022-11-04 14:00:01,15.50262578,0.0002204,53.2168,358.4034,36.9365,356.7287,-0.015635,-0.00823786,0.0,0 STARLINK-4687,1 53784U 22111M   22308.58334491 -.00823786  00000-0 -15635-1 0  9993,2 53784  53.2168 358.4034 0002204  36.9365 356.7287 15.50262578  1304,6794.096,92.887,417.458,414.463,0.0
53784.0,STARLINK-4687,PAYLOAD,2022-11-04 22:00:01,15.49575854,0.0001846,53.2174,356.8077,29.7565,65.0352,-0.020586,-0.01050315,0.0,0 STARLINK-4687,1 53784U 22111M   22308.91668981 -.01050315  00000-0 -20586-1 0  9996,2 53784  53.2174 356.8077 0001846  29.7565  65.0352 15.49575854  8552,6796.103,92.929,419.222,416.713,0.0
53784.0,STARLINK-4687,PAYLOAD,2022-11-05 14:00:01,15.48040369,0.0001679,53.2172,353.6284,35.7695,178.2266,-0.024519,-0.01189249,0.0,0 STARLINK-4687,1 53784U 22111M   22309.58335648 -.01189249  00000-0 -24519-1 0  9990,2 53784  53.2172 353.6284 0001679  35.7695 178.2266 15.48040369  8659,6800.596,93.021,423.603,421.319,0.0
53784.0,STARLINK-4687,PAYLOAD,2022-11-05 22:00:01,15.47192183,0.0001535,53.2176,352.0383,41.9115,230.2619,-0.024179,-0.01142634,0.0,0 STARLINK-4687,1 53784U 22111M   22309.91668981 -.01142634  00000-0 -24179-1 0  9995,2 53784  53.2176 352.0383 0001535  41.9115 230.2619 15.47192183  1300,6803.081,93.072,425.991,423.902,0.0
53784.0,STARLINK-4687,PAYLOAD,2022-11-06 14:00:01,15.45618458,0.0001538,53.2171,348.8716,31.7777,353.6849,-0.027223,-0.01211354,0.0,0 STARLINK-4687,1 53784U 22111M   22310.58334491 -.01211354  00000-0 -27223-1 0  9995,2 53784  53.2171 348.8716 0001538  31.7777 353.6849 15.45618458  8816,6807.698,93.167,430.61,428.516,0.0
53784.0,STARLINK-4687,PAYLOAD,2022-11-07 06:00:00,15.43941222,0.0001757,53.2174,345.7082,42.9509,92.0124,-0.027175,-0.01147515,0.0,0 STARLINK-4687,1 53784U 22111M   22311.25001157 -.01147515  00000-0 -27175-1 0  9993,2 53784  53.2174 345.7082 0001757  42.9509  92.0124 15.43941222  8918,6812.628000000002,93.268,435.69,433.296,0.0
53784.0,STARLINK-4687,PAYLOAD,2022-11-07 22:00:00,15.42308168,0.0001611,53.2175,342.5534,43.2305,197.2972,-0.028483,-0.01138682,0.0,0 STARLINK-4687,1 53784U 22111M   22311.91667824 -.01138682  00000-0 -28483-1 0  9993,2 53784  53.2175 342.5534 0001611  43.2305 197.2972 15.42308168  1303,6817.436,93.367,440.399,438.203,0.0
53784.0,STARLINK-4687,PAYLOAD,2022-11-08 06:00:00,15.41523892,0.0001513,53.2173,340.9806,44.3257,247.4999,-0.030348,-0.01177855,0.0,0 STARLINK-4687,1 53784U 22111M   22312.25001157 -.01177855  00000-0 -30348-1 0  9990,2 53784  53.2173 340.9806 0001513  44.3257 247.4999 15.41523892  9064,6819.748000000001,93.414,442.645,440.581,0.0
53784.0,STARLINK-4687,PAYLOAD,2022-11-08 14:00:01,15.40702126,0.0001776999999999,53.2168,339.4099,30.6382,311.5269,-0.030883,-0.01167191,0.0,0 STARLINK-4687,1 53784U 22111M   22312.58334491 -.01167191  00000-0 -30883-1 0  9992,2 53784  53.2168 339.4099 0001777  30.6382 311.5269 15.40702126  1304,6822.1730000000025,93.464,445.25,442.826,0.0
53784.0,STARLINK-4687,PAYLOAD,2022-11-08 22:00:00,15.39866533,0.0001537,53.2174,337.8372,36.5943,354.9418,-0.0309,-0.01138403,0.0,0 STARLINK-4687,1 53784U 22111M   22312.91667824 -.01138403  00000-0 -30900-1 0  9992,2 53784  53.2174 337.8372 0001537  36.5943 354.9418 15.39866533  1307,6824.641,93.515,447.555,445.457,0.0
53784.0,STARLINK-4687,PAYLOAD,2022-11-09 14:00:01,15.38244935,0.0001781,53.2166,334.7052,35.3404,91.9728,-0.032767,-0.01143836,0.0,0 STARLINK-4687,1 53784U 22111M   22313.58334491 -.01143836  00000-0 -32767-1 0  9996,2 53784  53.2166 334.7052 0001781  35.3404  91.9728 15.38244935  1306,6829.436,93.613,452.517,450.085,0.0
53784.0,STARLINK-4687,PAYLOAD,2022-11-09 22:00:01,15.37448987,0.0001806,53.217,333.1392,34.1358,139.6599,-0.034495,-0.0117061,0.0,0 STARLINK-4687,1 53784U 22111M   22313.91668981 -.01170610  00000-0 -34495-1 0  9997,2 53784  53.2170 333.1392 0001806  34.1358 139.6599 15.37448987  9322,6831.793000000002,93.662,454.892,452.424,0.0
53784.0,STARLINK-4687,PAYLOAD,2022-11-10 14:00:01,15.35823119,0.0001713,53.2164,330.01800000000014,40.9477,222.6969,-0.036388,-0.01171229,0.0,0 STARLINK-4687,1 53784U 22111M   22314.58334491 -.01171229  00000-0 -36388-1 0  9997,2 53784  53.2164 330.0180 0001713  40.9477 222.6969 15.35823119  1306,6836.614000000001,93.761,459.65,457.3080000000001,0.0
53784.0,STARLINK-4687,PAYLOAD,2022-11-10 22:00:00,15.34985271,0.0001587,53.2171,328.4575,41.5045,265.6445,-0.036256,-0.01138897,0.0,0 STARLINK-4687,1 53784U 22111M   22314.91667824 -.01138897  00000-0 -36256-1 0  9991,2 53784  53.2171 328.4575 0001587  41.5045 265.6445 15.34985271  1303,6839.101,93.812,462.052,459.881,0.0
53784.0,STARLINK-4687,PAYLOAD,2022-11-11 06:00:00,15.34171768,0.0001616,53.2173,326.9018,37.5606,312.1009,-0.037218,-0.01139024,0.0,0 STARLINK-4687,1 53784U 22111M   22315.25001157 -.01139024  00000-0 -37218-1 0  9992,2 53784  53.2173 326.9018 0001616  37.5606 312.1009 15.34171768  9536,6841.519,93.862,464.489,462.278,0.0
53784.0,STARLINK-4687,PAYLOAD,2022-11-11 14:00:01,15.33387253,0.0001706,53.2166,325.348,31.5251,359.6565,-0.039579,-0.01177602,0.0,0 STARLINK-4687,1 53784U 22111M   22315.58334491 -.01177602  00000-0 -39579-1 0  9994,2 53784  53.2166 325.3480 0001706  31.5251 359.6565 15.33387253  1301,6843.852,93.91,466.885,464.549,0.0
53784.0,STARLINK-4687,PAYLOAD,2022-11-11 22:00:00,15.3256378,0.0001817,53.2171,323.7936,34.1061,37.6391,-0.040172,-0.01165613,0.0,0 STARLINK-4687,1 53784U 22111M   22315.91667824 -.01165613  00000-0 -40172-1 0  9990,2 53784  53.2171 323.7936 0001817  34.1061  37.6391 15.32563780  1306,6846.303000000001,93.96,469.412,466.924,0.0
53784.0,STARLINK-4687,PAYLOAD,2022-11-12 06:00:00,15.31738307,0.000172,53.2171,322.2437,43.7299,67.6002,-0.04061,-0.01149532,0.0,0 STARLINK-4687,1 53784U 22111M   22316.25001157 -.01149532  00000-0 -40610-1 0  9998,2 53784  53.2171 322.2437 0001720  43.7299  67.6002 15.31738307  9687,6848.763000000001,94.011,471.806,469.45,0.0
53784.0,STARLINK-4687,PAYLOAD,2022-11-12 14:00:01,15.30934389,0.0001998,53.2167,320.6953,37.4225,112.5037,-0.042119,-0.01161449,0.0,0 STARLINK-4687,1 53784U 22111M   22316.58334491 -.01161449  00000-0 -42119-1 0  9991,2 53784  53.2167 320.6953 0001998  37.4225 112.5037 15.30934389  1309,6851.16,94.06,474.394,471.656,0.0
53784.0,STARLINK-4687,PAYLOAD,2022-11-12 22:00:00,15.30124112,0.0001852,53.217,319.1468,41.5443,146.0053,-0.043432,-0.0116712,0.0,0 STARLINK-4687,1 53784U 22111M   22316.91667824 -.01167120  00000-0 -43432-1 0  9998,2 53784  53.2170 319.1468 0001852  41.5443 146.0053 15.30124112  1309,6853.579000000002,94.11,476.713,474.174,0.0
53784.0,STARLINK-4687,PAYLOAD,2022-11-13 06:00:02,15.29318655,0.0001734,53.2172,317.6027,44.2617,179.9934,-0.045005,-0.01194488,0.0,0 STARLINK-4687,1 53784U 22111M   22317.25002315 -.01194488  00000-0 -45005-1 0  9999,2 53784  53.2172 317.6027 0001734  44.2617 179.9934 15.29318655  9831,6855.985,94.16,479.039,476.661,0.0
53784.0,STARLINK-4687,PAYLOAD,2022-11-13 14:00:01,15.28519698,0.0001657,53.2167,316.06,35.0465,224.8026,-0.046808,-0.01210641,0.0,0 STARLINK-4687,1 53784U 22111M   22317.58334491 -.01210641  00000-0 -46808-1 0  9990,2 53784  53.2167 316.0600 0001657  35.0465 224.8026 15.28519698  1303,6858.374,94.209,481.375,479.102,0.0
53784.0,STARLINK-4687,PAYLOAD,2022-11-13 22:00:00,15.27735359,0.0005387,53.2172,314.5173,272.2217,22.3074,-0.049888,-0.01256696,0.0,0 STARLINK-4687,1 53784U 22111M   22317.91667824 -.01256696  00000-0 -49888-1 0  9997,2 53784  53.2172 314.5173 0005387 272.2217  22.3074 15.27735359  9935,6860.721,94.257,486.282,478.89,0.0
53784.0,STARLINK-4687,PAYLOAD,2022-11-14 14:00:01,15.26023526,0.0004663,53.2173,311.4413,270.053,90.9615,-0.046983,-0.01118287,0.0,0 STARLINK-4687,1 53784U 22111M   22318.58334491 -.01118287  00000-0 -46983-1 0  9998,2 53784  53.2173 311.4413 0004663 270.0530  90.9615 15.26023526  1310,6865.851,94.363,490.917,484.514,0.0
53784.0,STARLINK-4687,PAYLOAD,2022-11-14 22:00:00,15.25212541,0.0001356,53.2172,309.9043,270.0616,122.7093,-0.048358,-0.01121777,0.0,0 STARLINK-4687,1 53784U 22111M   22318.91667824 -.01121777  00000-0 -48358-1 0  9990,2 53784  53.2172 309.9043 0001356 270.0616 122.7093 15.25212541  1300,6868.284000000002,94.413,491.081,489.218,0.0
53784.0,STARLINK-4687,PAYLOAD,2022-11-15 14:00:01,15.23603415,0.0001821,53.217,306.841,36.3734,56.9693,-0.052214,-0.01166816,0.0,0 STARLINK-4687,1 53784U 22111M   22319.58334491 -.01166816  00000-0 -52214-1 0  9994,2 53784  53.2170 306.8410 0001821  36.3734  56.9693 15.23603415  1309,6873.119000000002,94.513,496.236,493.733,0.0
53784.0,STARLINK-4687,PAYLOAD,2022-11-15 16:00:00,15.23389433,0.0001809,53.2173,306.4575,43.5838,147.0622,-0.05185,-0.01152468,0.0,0 STARLINK-4687,1 53784U 22111M   22319.66667824 -.01152468  00000-0 -51850-1 0  9995,2 53784  53.2173 306.4575 0001809  43.5838 147.0622 15.23389433 10205,6873.763000000001,94.526,496.871,494.384,0.0
53784.0,STARLINK-4687,PAYLOAD,2022-11-15 22:00:00,15.22777471,0.000178,53.2174,305.3093,41.6157,80.5573,-0.052683,-0.01149998,0.0,0 STARLINK-4687,1 53784U 22111M   22319.91667824 -.01149998  00000-0 -52683-1 0  9992,2 53784  53.2174 305.3093 0001780  41.6157  80.5573 15.22777471  1309,6875.604,94.564,498.693,496.246,0.0
